NORAD_CAT_ID,OBJECT_NAME,OBJECT_TYPE,EPOCH,MEAN_MOTION,ECCENTRICITY,INCLINATION,RA_OF_ASC_NODE,ARG_OF_PERICENTER,MEAN_ANOMALY,BSTAR,MEAN_MOTION_DOT,MEAN_MOTION_DDOT,TLE_LINE0,TLE_LINE1,TLE_LINE2,SEMIMAJOR_AXIS,PERIOD,APOGEE,PERIGEE,DECAYED
55425.0,STARLINK-5615,PAYLOAD,2023-02-28 06:32:58,15.69920484,0.0004179,69.9994,12.1504,278.2033,81.8689,0.00014475,0.00017228,0.0,0 STARLINK-5615,1 55425U 23014AL  23059.27289743  .00017228  00000-0  14475-3 0  9996,2 55425  69.9994  12.1504 0004179 278.2033  81.8689 15.69920484  4538,6737.261,91.724,361.942,356.311,0.0
55425.0,STARLINK-5615,PAYLOAD,2023-02-28 21:50:30,15.69901162,0.0003197,69.999,10.3565,266.2427,93.8403,2.6087e-05,2.922e-05,0.0,0 STARLINK-5615,1 55425U 23014AL  23059.91007990  .00002922  00000-0  26087-4 0  9997,2 55425  69.9990  10.3565 0003197 266.2427  93.8403 15.69901162  5578,6737.317,91.726,361.336,357.028,0.0
55425.0,STARLINK-5615,PAYLOAD,2023-02-28 23:22:16,15.69902099,0.0003234,69.9991,10.1773,266.0688,94.0138,4.7013e-05,5.439e-05,0.0,0 STARLINK-5615,1 55425U 23014AL  23059.97379777  .00005439  00000-0  47013-4 0  9996,2 55425  69.9991  10.1773 0003234 266.0688  94.0138 15.69902099  4642,6737.314,91.725,361.358,357.0,0.0
55425.0,STARLINK-5615,PAYLOAD,2023-03-01 07:01:01,15.69945069,0.0003134,69.9991,9.2816,264.7678,95.3161,0.00038129,0.00045924,0.0,0 STARLINK-5615,1 55425U 23014AL  23060.29238077  .00045924  00000-0  38129-3 0  9990,2 55425  69.9991   9.2816 0003134 264.7678  95.3161 15.69945069  4691,6737.191,91.723,361.168,356.945,0.0
55425.0,STARLINK-5615,PAYLOAD,2023-03-01 23:50:16,15.69958551,0.0003631,69.998,7.3092,235.799,124.2862,0.00014301,0.00017043,0.0,0 STARLINK-5615,1 55425U 23014AL  23060.99325179  .00017043  00000-0  14301-3 0  9994,2 55425  69.9980   7.3092 0003631 235.7990 124.2862 15.69958551  4804,6737.153,91.722,361.464,356.571,0.0
55425.0,STARLINK-5615,PAYLOAD,2023-03-02 05:57:17,15.69943766,0.0004019,69.9978,6.5945,261.0728,99.0013,5.2361e-05,6.093e-05,0.0,0 STARLINK-5615,1 55425U 23014AL  23061.24811869  .00006093  00000-0  52361-4 0  9991,2 55425  69.9978   6.5945 0004019 261.0728  99.0013 15.69943766  4844,6737.195,91.723,361.768,356.352,0.0
55425.0,STARLINK-5615,PAYLOAD,2023-03-03 04:53:34,15.69940845,0.0003365,69.9992,3.9073,254.5661,105.5163,3.0807e-05,3.496e-05,0.0,0 STARLINK-5615,1 55425U 23014AL  23062.20386580  .00003496  00000-0  30807-4 0  9990,2 55425  69.9992   3.9073 0003365 254.5661 105.5163 15.69940845  4999,6737.203,91.723,361.335,356.801,0.0
55425.0,STARLINK-5615,PAYLOAD,2023-03-03 21:42:50,15.6992683,0.0003386,69.9991,1.9367,262.9333,97.1478,1.292e-05,1.341e-05,0.0,0 STARLINK-5615,1 55425U 23014AL  23062.90475383  .00001341  00000-0  12920-4 0  9990,2 55425  69.9991   1.9367 0003386 262.9333  97.1478 15.69926830  6045,6737.243,91.724,361.39,356.827,0.0
55425.0,STARLINK-5615,PAYLOAD,2023-03-04 02:18:05,15.69938252,0.0003398,69.9991,1.3992,265.231,94.8497,3.9937e-05,4.595e-05,0.0,0 STARLINK-5615,1 55425U 23014AL  23063.09589882  .00004595  00000-0  39937-4 0  9992,2 55425  69.9991   1.3992 0003398 265.2310  94.8497 15.69938252  5132,6737.211,91.723,361.365,356.786,0.0
55425.0,STARLINK-5615,PAYLOAD,2023-03-04 08:25:07,15.69917318,0.0003151,69.998,0.682,267.5735,92.5099,-8.5676e-06,-1.242e-05,0.0,0 STARLINK-5615,1 55425U 23014AL  23063.35077611 -.00001242  00000-0 -85676-5 0  9993,2 55425  69.9980   0.6820 0003151 267.5735  92.5099 15.69917318  5172,6737.271,91.725,361.258,357.013,0.0
55425.0,STARLINK-5615,PAYLOAD,2023-03-04 19:07:23,15.69916963,0.0003109,69.9978,359.4279,265.5875,94.4966,-9.5327e-06,-1.358e-05,0.0,0 STARLINK-5615,1 55425U 23014AL  23063.79679609 -.00001358  00000-0 -95327-5 0  9998,2 55425  69.9978 359.4279 0003109 265.5875  94.4966 15.69916963  6189,6737.272,91.725,361.231,357.042,0.0
55425.0,STARLINK-5615,PAYLOAD,2023-03-05 05:49:38,15.69938894,0.0003301,69.9989,358.1748,259.3454,100.737,3.6305e-05,4.157e-05,0.0,0 STARLINK-5615,1 55425U 23014AL  23064.24280281  .00004157  00000-0  36305-4 0  9991,2 55425  69.9989 358.1748 0003301 259.3454 100.7370 15.69938894  5317,6737.209,91.723,361.298,356.85,0.0
55425.0,STARLINK-5615,PAYLOAD,2023-03-05 22:38:54,15.69931088,0.0002759,69.9999,356.2046,252.5633,107.5262,2.6353e-05,2.958e-05,0.0,0 STARLINK-5615,1 55425U 23014AL  23064.94369023  .00002958  00000-0  26353-4 0  9999,2 55425  69.9999 356.2046 0002759 252.5633 107.5262 15.69931088  6367,6737.231,91.724,360.955,357.237,0.0
55425.0,STARLINK-5615,PAYLOAD,2023-03-06 01:42:24,15.69941734,0.0003596,69.998,355.8453,260.575,99.5039,5.0743e-05,5.897e-05,0.0,0 STARLINK-5615,1 55425U 23014AL  23065.07111757  .00005897  00000-0  50743-4 0  9998,2 55425  69.9980 355.8453 0003596 260.5750  99.5039 15.69941734  5442,6737.201,91.723,361.488,356.643,0.0
55425.0,STARLINK-5615,PAYLOAD,2023-03-06 07:49:26,15.69915101,0.0003155,69.9981,355.1284,261.5487,98.5351,-5.8475e-06,-9.15e-06,0.0,0 STARLINK-5615,1 55425U 23014AL  23065.32599651 -.00000915  00000-0 -58475-5 0  9998,2 55425  69.9981 355.1284 0003155 261.5487  98.5351 15.69915101  5486,6737.277,91.725,361.268,357.016,0.0
55425.0,STARLINK-5615,PAYLOAD,2023-03-06 21:35:12,15.69917403,0.0003092,69.9962,353.5138,253.0503,107.0354,1.1223e-05,1.137e-05,0.0,0 STARLINK-5615,1 55425U 23014AL  23065.89944970  .00001137  00000-0  11223-4 0  9992,2 55425  69.9962 353.5138 0003092 253.0503 107.0354 15.69917403  6511,6737.27,91.725,361.218,357.052,0.0
55425.0,STARLINK-5615,PAYLOAD,2023-03-07 03:42:11,15.69948147,0.0003753,69.9986,352.799,265.5426,94.5341,7.2345e-05,8.504e-05,0.0,0 STARLINK-5615,1 55425U 23014AL  23066.15430272  .00008504  00000-0  72345-4 0  9994,2 55425  69.9986 352.7990 0003753 265.5426  94.5341 15.69948147  5615,6737.182,91.723,361.576,356.519,0.0
55425.0,STARLINK-5615,PAYLOAD,2023-03-07 18:59:45,15.69892989,0.0003635,69.9986,351.0084,263.6264,96.4517,-6.3315e-05,-7.809e-05,0.0,0 STARLINK-5615,1 55425U 23014AL  23066.79149751 -.00007809  00000-0 -63315-4 0  9999,2 55425  69.9986 351.0084 0003635 263.6264  96.4517 15.69892989  5718,6737.34,91.726,361.654,356.756,0.0
55425.0,STARLINK-5615,PAYLOAD,2023-03-08 02:38:30,15.69927071,0.0003259,69.9995,350.113,265.4402,94.6421,3.4506e-05,3.939e-05,0.0,0 STARLINK-5615,1 55425U 23014AL  23067.11007043  .00003939  00000-0  34506-4 0  9991,2 55425  69.9995 350.1130 0003259 265.4402  94.6421 15.69927071  5766,6737.243,91.724,361.303,356.912,0.0
55425.0,STARLINK-5615,PAYLOAD,2023-03-08 04:10:14,15.69953096,0.0003731,69.9993,349.9336,265.3424,94.7346,0.0001036,0.00012278,0.0,0 STARLINK-5615,1 55425U 23014AL  23067.17377678  .00012278  00000-0  10360-3 0  9998,2 55425  69.9993 349.9336 0003731 265.3424  94.7346 15.69953096  5770,6737.168,91.722,361.547,356.52,0.0
55425.0,STARLINK-5615,PAYLOAD,2023-03-08 17:56:00,15.69948901,0.0003199,70.0007,348.322,267.5708,92.5121,9.3563e-05,0.00011063,0.0,0 STARLINK-5615,1 55425U 23014AL  23067.74722664  .00011063  00000-0  93563-4 0  9998,2 55425  70.0007 348.3220 0003199 267.5708  92.5121 15.69948901  5867,6737.18,91.723,361.2,356.89,0.0
55425.0,STARLINK-5615,PAYLOAD,2023-03-09 19:55:48,15.69924412,0.0002924,69.9984,345.2753,274.3727,85.7134,9.676e-06,9.51e-06,0.0,0 STARLINK-5615,1 55425U 23014AL  23068.83041731  .00000951  00000-0  96760-5 0  9995,2 55425  69.9984 345.2753 0002924 274.3727  85.7134 15.69924412  6036,6737.25,91.724,361.085,357.145,0.0
55425.0,STARLINK-5615,PAYLOAD,2023-03-09 21:27:32,15.69930431,0.0002814,69.9996,345.0971,258.3319,101.7561,2.2959e-05,2.549e-05,0.0,0 STARLINK-5615,1 55425U 23014AL  23068.89413141  .00002549  00000-0  22959-4 0  9992,2 55425  69.9996 345.0971 0002814 258.3319 101.7561 15.69930431  6981,6737.233,91.724,360.994,357.202,0.0
55425.0,STARLINK-5615,PAYLOAD,2023-03-10 03:34:32,15.69940851,0.0003326,69.9975,344.3786,270.0074,90.0741,3.5194e-05,4.024e-05,0.0,0 STARLINK-5615,1 55425U 23014AL  23069.14899212  .00004024  00000-0  35194-4 0  9993,2 55425  69.9975 344.3786 0003326 270.0074  90.0741 15.69940851  6080,6737.203,91.723,361.309,356.827,0.0
55425.0,STARLINK-5615,PAYLOAD,2023-03-10 11:13:18,15.69925338,0.000265,69.9998,343.4837,265.35,94.7393,-2.1719e-05,-2.823e-05,0.0,0 STARLINK-5615,1 55425U 23014AL  23069.46757971 -.00002823  00000-0 -21719-4 0  9998,2 55425  69.9998 343.4837 0002650 265.3500  94.7393 15.69925338  6135,6737.248,91.724,360.898,357.327,0.0
55425.0,STARLINK-5615,PAYLOAD,2023-03-10 20:23:49,15.69927956,0.0003118,69.9993,342.4092,266.3566,93.7274,7.1239e-06,6.44e-06,0.0,0 STARLINK-5615,1 55425U 23014AL  23069.84987864  .00000644  00000-0  71239-5 0  9996,2 55425  69.9993 342.4092 0003118 266.3566  93.7274 15.69927956  7131,6737.24,91.724,361.206,357.004,0.0
55425.0,STARLINK-5615,PAYLOAD,2023-03-11 02:30:49,15.69931549,0.0003101,69.9992,341.6929,266.7834,93.3007,2.1417e-05,2.364e-05,0.0,0 STARLINK-5615,1 55425U 23014AL  23070.10474442  .00002364  00000-0  21417-4 0  9993,2 55425  69.9992 341.6929 0003101 266.7834  93.3007 15.69931549  6237,6737.23,91.724,361.184,357.006,0.0
55425.0,STARLINK-5615,PAYLOAD,2023-03-11 19:20:06,15.69916764,0.0003485,69.9973,339.721,262.0252,98.0548,-1.3842e-05,-1.876e-05,0.0,0 STARLINK-5615,1 55425U 23014AL  23070.80563432 -.00001876  00000-0 -13842-4 0  9990,2 55425  69.9973 339.7210 0003485 262.0252  98.0548 15.69916764  6341,6737.272,91.725,361.485,356.789,0.0
55425.0,STARLINK-5615,PAYLOAD,2023-03-12 02:58:52,15.69930316,0.0003387,69.997,338.8249,259.5826,100.4988,2.4841e-05,2.776e-05,0.0,0 STARLINK-5615,1 55425U 23014AL  23071.12421318  .00002776  00000-0  24841-4 0  9991,2 55425  69.9970 338.8249 0003387 259.5826 100.4988 15.69930316  6399,6737.233,91.724,361.38,356.816,0.0
55425.0,STARLINK-5615,PAYLOAD,2023-03-12 16:44:38,15.69930477,0.0003076,69.9984,337.2143,251.1198,108.9664,2.8715e-05,3.242e-05,0.0,0 STARLINK-5615,1 55425U 23014AL  23071.69766414  .00003242  00000-0  28715-4 0  9995,2 55425  69.9984 337.2143 0003076 251.1198 108.9664 15.69930477  7422,6737.233,91.724,361.17,357.026,0.0
